SL-16 R/B               
1 25400U 98043G   26019.61700101  .00000047  00000+0  38475-4 0  9990
2 25400  98.8178 332.6573 0010276 151.3496 208.8250 14.26035358431996
SL-16 R/B               
1 25407U 98045B   26019.48310154  .00000321  00000+0  18634-3 0  9998
2 25407  71.0117 285.0547 0005264 105.7740 254.3964 14.16182561420137
ISS (ZARYA)             
1 25544U 98067A   26019.53011892  .00012910  00000+0  23849-3 0  9998
2 25544  51.6334 315.3913 0007805  35.9319 324.2193 15.49410172548712
CZ-4B R/B               
1 25732U 99025C   26019.64390726  .00000041  00000+0  40305-4 0  9999
2 25732  98.6715  65.0664 0037988 125.2089 345.8516 14.18253187381213
OKEAN-O                 
1 25860U 99039A   26019.44255828  .00000795  00000+0  11143-3 0  9990
2 25860  97.9544  79.8087 0001782 104.2540 255.8870 14.80234674427102
SL-16 R/B               
1 25861U 99039B   26019.60415288  .00000565  00000+0  78564-4 0  9993
2 25861  98.0068  78.7479 0015935  59.5389 300.7395 14.81646875429595
DELTA 2 R/B             
1 25876U 99041E   26019.59368140  .00002484  00000+0  43700-3 0  9999
2 25876  51.7629 137.3241 0503377 203.3759 154.3544 14.11575401356093
HELIOS 1B               
1 25977U 99064A   26019.61128501  .00001716  00000+0  19592-3 0  9993
2 25977  98.1745 280.4023 0000858 136.3702 223.7581 14.87454318677966
TERRA                   
1 25994U 99068A   26019.62003275  .00000417  00000+0  94189-4 0  9990
2 25994  97.9691  74.9042 0002035  11.5793 105.1284 14.60948694387914
SL-16 R/B               
1 26070U 00006B   26019.62698883 -.00000169  00000+0 -61726-4 0  9992
2 26070  71.0001 200.9957 0018891 257.8091 102.0916 14.15812106341610
TITAN 4B R/B            
1 26474U 00047B   26019.65844450  .00003869  00000+0  24819-3 0  9990
2 26474  67.9882 178.3355 0036823  97.2127 263.3211 15.09082756385510
ENVISAT                 
1 27386U 02009A   26019.61383062  .00000114  00000+0  50652-4 0  9991
2 27386  98.3653 334.4050 0001159  92.0917  81.0847 14.39014658252115
