CCSDS_OMM_VERS = 2.0
CREATION_DATE  = 
ORIGINATOR     = 

OBJECT_NAME    = SL-16 R/B
OBJECT_ID      = 1998-043G
CENTER_NAME    = EARTH
REF_FRAME      = TEME
TIME_SYSTEM    = UTC
MEAN_ELEMENT_THEORY = SGP/SGP4

EPOCH          = 2026-01-19T14:48:28.887264
MEAN_MOTION    = 14.26035358
ECCENTRICITY   = .00102762
INCLINATION    = 98.8178
RA_OF_ASC_NODE = 332.6573
ARG_OF_PERICENTER = 151.3496
MEAN_ANOMALY   = 208.8250

EPHEMERIS_TYPE = 0
CLASSIFICATION_TYPE = U
NORAD_CAT_ID   = 25400
ELEMENT_SET_NO = 999
REV_AT_EPOCH   = 43199
BSTAR          = .38474641E-4
MEAN_MOTION_DOT = .47E-6
MEAN_MOTION_DDOT = 0

CCSDS_OMM_VERS = 2.0
CREATION_DATE  = 
ORIGINATOR     = 

OBJECT_NAME    = SL-16 R/B
OBJECT_ID      = 1998-045B
CENTER_NAME    = EARTH
REF_FRAME      = TEME
TIME_SYSTEM    = UTC
MEAN_ELEMENT_THEORY = SGP/SGP4

EPOCH          = 2026-01-19T11:35:39.973056
MEAN_MOTION    = 14.16182561
ECCENTRICITY   = .00052643
INCLINATION    = 71.0117
RA_OF_ASC_NODE = 285.0547
ARG_OF_PERICENTER = 105.7740
MEAN_ANOMALY   = 254.3964

EPHEMERIS_TYPE = 0
CLASSIFICATION_TYPE = U
NORAD_CAT_ID   = 25407
ELEMENT_SET_NO = 999
REV_AT_EPOCH   = 42013
BSTAR          = .18633783E-3
MEAN_MOTION_DOT = .321E-5
MEAN_MOTION_DDOT = 0

CCSDS_OMM_VERS = 2.0
CREATION_DATE  = 
ORIGINATOR     = 

OBJECT_NAME    = ISS (ZARYA)
OBJECT_ID      = 1998-067A
CENTER_NAME    = EARTH
REF_FRAME      = TEME
TIME_SYSTEM    = UTC
MEAN_ELEMENT_THEORY = SGP/SGP4

EPOCH          = 2026-01-19T12:43:22.274688
MEAN_MOTION    = 15.49410172
ECCENTRICITY   = .00078054
INCLINATION    = 51.6334
RA_OF_ASC_NODE = 315.3913
ARG_OF_PERICENTER = 35.9319
MEAN_ANOMALY   = 324.2193

EPHEMERIS_TYPE = 0
CLASSIFICATION_TYPE = U
NORAD_CAT_ID   = 25544
ELEMENT_SET_NO = 999
REV_AT_EPOCH   = 54871
BSTAR          = .23849396E-3
MEAN_MOTION_DOT = .1291E-3
MEAN_MOTION_DDOT = 0

CCSDS_OMM_VERS = 2.0
CREATION_DATE  = 
ORIGINATOR     = 

OBJECT_NAME    = CZ-4B R/B
OBJECT_ID      = 1999-025C
CENTER_NAME    = EARTH
REF_FRAME      = TEME
TIME_SYSTEM    = UTC
MEAN_ELEMENT_THEORY = SGP/SGP4

EPOCH          = 2026-01-19T15:27:13.587264
MEAN_MOTION    = 14.18253187
ECCENTRICITY   = .00379882
INCLINATION    = 98.6715
RA_OF_ASC_NODE = 65.0664
ARG_OF_PERICENTER = 125.2089
MEAN_ANOMALY   = 345.8516

EPHEMERIS_TYPE = 0
CLASSIFICATION_TYPE = U
NORAD_CAT_ID   = 25732
ELEMENT_SET_NO = 999
REV_AT_EPOCH   = 38121
BSTAR          = .40304666E-4
MEAN_MOTION_DOT = .41E-6
MEAN_MOTION_DDOT = 0

CCSDS_OMM_VERS = 2.0
CREATION_DATE  = 
ORIGINATOR     = 

OBJECT_NAME    = OKEAN-O
OBJECT_ID      = 1999-039A
CENTER_NAME    = EARTH
REF_FRAME      = TEME
TIME_SYSTEM    = UTC
MEAN_ELEMENT_THEORY = SGP/SGP4

EPOCH          = 2026-01-19T10:37:17.035392
MEAN_MOTION    = 14.80234674
ECCENTRICITY   = .00017822
INCLINATION    = 97.9544
RA_OF_ASC_NODE = 79.8087
ARG_OF_PERICENTER = 104.2540
MEAN_ANOMALY   = 255.8870

EPHEMERIS_TYPE = 0
CLASSIFICATION_TYPE = U
NORAD_CAT_ID   = 25860
ELEMENT_SET_NO = 999
REV_AT_EPOCH   = 42710
BSTAR          = .11143231E-3
MEAN_MOTION_DOT = .795E-5
MEAN_MOTION_DDOT = 0

CCSDS_OMM_VERS = 2.0
CREATION_DATE  = 
ORIGINATOR     = 

OBJECT_NAME    = SL-16 R/B
OBJECT_ID      = 1999-039B
CENTER_NAME    = EARTH
REF_FRAME      = TEME
TIME_SYSTEM    = UTC
MEAN_ELEMENT_THEORY = SGP/SGP4

EPOCH          = 2026-01-19T14:29:58.808832
MEAN_MOTION    = 14.81646875
ECCENTRICITY   = .00159358
INCLINATION    = 98.0068
RA_OF_ASC_NODE = 78.7479
ARG_OF_PERICENTER = 59.5389
MEAN_ANOMALY   = 300.7395

EPHEMERIS_TYPE = 0
CLASSIFICATION_TYPE = U
NORAD_CAT_ID   = 25861
ELEMENT_SET_NO = 999
REV_AT_EPOCH   = 42959
BSTAR          = .78563599E-4
MEAN_MOTION_DOT = .565E-5
MEAN_MOTION_DDOT = 0

CCSDS_OMM_VERS = 2.0
CREATION_DATE  = 
ORIGINATOR     = 

OBJECT_NAME    = DELTA 2 R/B
OBJECT_ID      = 1999-041E
CENTER_NAME    = EARTH
REF_FRAME      = TEME
TIME_SYSTEM    = UTC
MEAN_ELEMENT_THEORY = SGP/SGP4

EPOCH          = 2026-01-19T14:14:54.072960
MEAN_MOTION    = 14.11575401
ECCENTRICITY   = .05033779
INCLINATION    = 51.7629
RA_OF_ASC_NODE = 137.3241
ARG_OF_PERICENTER = 203.3759
MEAN_ANOMALY   = 154.3544

EPHEMERIS_TYPE = 0
CLASSIFICATION_TYPE = U
NORAD_CAT_ID   = 25876
ELEMENT_SET_NO = 999
REV_AT_EPOCH   = 35609
BSTAR          = .43699973E-3
MEAN_MOTION_DOT = .2484E-4
MEAN_MOTION_DDOT = 0

CCSDS_OMM_VERS = 2.0
CREATION_DATE  = 
ORIGINATOR     = 

OBJECT_NAME    = HELIOS 1B
OBJECT_ID      = 1999-064A
CENTER_NAME    = EARTH
REF_FRAME      = TEME
TIME_SYSTEM    = UTC
MEAN_ELEMENT_THEORY = SGP/SGP4

EPOCH          = 2026-01-19T14:40:15.024864
MEAN_MOTION    = 14.87454318
ECCENTRICITY   = .00008581
INCLINATION    = 98.1745
RA_OF_ASC_NODE = 280.4023
ARG_OF_PERICENTER = 136.3702
MEAN_ANOMALY   = 223.7581

EPHEMERIS_TYPE = 0
CLASSIFICATION_TYPE = U
NORAD_CAT_ID   = 25977
ELEMENT_SET_NO = 999
REV_AT_EPOCH   = 67796
BSTAR          = .19591669E-3
MEAN_MOTION_DOT = .1716E-4
MEAN_MOTION_DDOT = 0

CCSDS_OMM_VERS = 2.0
CREATION_DATE  = 
ORIGINATOR     = 

OBJECT_NAME    = TERRA
OBJECT_ID      = 1999-068A
CENTER_NAME    = EARTH
REF_FRAME      = TEME
TIME_SYSTEM    = UTC
MEAN_ELEMENT_THEORY = SGP/SGP4

EPOCH          = 2026-01-19T14:52:50.829600
MEAN_MOTION    = 14.60948694
ECCENTRICITY   = .00020355
INCLINATION    = 97.9691
RA_OF_ASC_NODE = 74.9042
ARG_OF_PERICENTER = 11.5793
MEAN_ANOMALY   = 105.1284

EPHEMERIS_TYPE = 0
CLASSIFICATION_TYPE = U
NORAD_CAT_ID   = 25994
ELEMENT_SET_NO = 999
REV_AT_EPOCH   = 38791
BSTAR          = .94189146E-4
MEAN_MOTION_DOT = .417E-5
MEAN_MOTION_DDOT = 0

CCSDS_OMM_VERS = 2.0
CREATION_DATE  = 
ORIGINATOR     = 

OBJECT_NAME    = SL-16 R/B
OBJECT_ID      = 2000-006B
CENTER_NAME    = EARTH
REF_FRAME      = TEME
TIME_SYSTEM    = UTC
MEAN_ELEMENT_THEORY = SGP/SGP4

EPOCH          = 2026-01-19T15:02:51.834912
MEAN_MOTION    = 14.15812106
ECCENTRICITY   = .00188913
INCLINATION    = 71.0001
RA_OF_ASC_NODE = 200.9957
ARG_OF_PERICENTER = 257.8091
MEAN_ANOMALY   = 102.0916

EPHEMERIS_TYPE = 0
CLASSIFICATION_TYPE = U
NORAD_CAT_ID   = 26070
ELEMENT_SET_NO = 999
REV_AT_EPOCH   = 34161
BSTAR          = -.61725593E-4
MEAN_MOTION_DOT = -.169E-5
MEAN_MOTION_DDOT = 0

CCSDS_OMM_VERS = 2.0
CREATION_DATE  = 
ORIGINATOR     = 

OBJECT_NAME    = TITAN 4B R/B
OBJECT_ID      = 2000-047B
CENTER_NAME    = EARTH
REF_FRAME      = TEME
TIME_SYSTEM    = UTC
MEAN_ELEMENT_THEORY = SGP/SGP4

EPOCH          = 2026-01-19T15:48:09.604800
MEAN_MOTION    = 15.09082756
ECCENTRICITY   = .00368237
INCLINATION    = 67.9882
RA_OF_ASC_NODE = 178.3355
ARG_OF_PERICENTER = 97.2127
MEAN_ANOMALY   = 263.3211

EPHEMERIS_TYPE = 0
CLASSIFICATION_TYPE = U
NORAD_CAT_ID   = 26474
ELEMENT_SET_NO = 999
REV_AT_EPOCH   = 38551
BSTAR          = .24818982E-3
MEAN_MOTION_DOT = .3869E-4
MEAN_MOTION_DDOT = 0

CCSDS_OMM_VERS = 2.0
CREATION_DATE  = 
ORIGINATOR     = 

OBJECT_NAME    = ENVISAT
OBJECT_ID      = 2002-009A
CENTER_NAME    = EARTH
REF_FRAME      = TEME
TIME_SYSTEM    = UTC
MEAN_ELEMENT_THEORY = SGP/SGP4

EPOCH          = 2026-01-19T14:43:54.965568
MEAN_MOTION    = 14.39014658
ECCENTRICITY   = .00011594
INCLINATION    = 98.3653
RA_OF_ASC_NODE = 334.4050
ARG_OF_PERICENTER = 92.0917
MEAN_ANOMALY   = 81.0847

EPHEMERIS_TYPE = 0
CLASSIFICATION_TYPE = U
NORAD_CAT_ID   = 27386
ELEMENT_SET_NO = 999
REV_AT_EPOCH   = 25211
BSTAR          = .5065179E-4
MEAN_MOTION_DOT = .114E-5
MEAN_MOTION_DDOT = 0

